EUTELSAT 21B            
1 38992U 12062B   25238.89419839  .00000127  00000+0  00000+0 0  9991
2 38992   0.0695 359.5229 0002535 157.8328 161.5231  1.00270456 46876
EUTELSAT 70B            
1 39020U 12069A   25238.88823758 -.00000047  00000+0  00000+0 0  9991
2 39020   0.0654   0.7801 0003583 157.2072 207.6415  1.00271655 46552
EUTELSAT 117 WEST A     
1 39122U 13012A   25238.61850297  .00000000  00000+0  00000+0 0  9990
2 39122   0.0162 247.7581 0002988 277.5679 275.6507  1.00271700 45472
EUTELSAT 7B             
1 39163U 13022A   25238.81619252  .00000045  00000+0  00000+0 0  9991
2 39163   0.0724 331.6902 0001719  72.8805 231.5714  1.00274705 45007
EXPRESS-AT1             
1 39612U 14010A   25238.96866028  .00000076  00000+0  00000+0 0  9993
2 39612   0.0400 290.7373 0000729 149.5917 299.8510  1.00271000 41866
EXPRESS-AT2             
1 39613U 14010B   25238.98530036 -.00000284  00000+0  00000+0 0  9995
2 39613   0.0369 282.0777 0000234 126.7285  61.2190  1.00272558 41559
EUTELSAT 3B             
1 39773U 14030A   25238.81541251  .00000016  00000+0  00000+0 0  9999
2 39773   0.0651 358.7615 0004186 157.1833 115.9837  1.00271988 41112
EUTELSAT 115 WEST B     
1 40425U 15010B   25238.55391917 -.00000030  00000+0  00000+0 0  9994
2 40425   0.0082 268.3639 0000070 307.4583 203.7221  1.00272741 38430
